STARLINK-2002
1 17597C 21009BB  21326.13662135  .00009010  00000-0  60366-3 0  3263
2 17597  53.0550 243.1373 0001938  67.3350  18.8286 15.06390364    11
